IRIDIUM 7               
1 24793U 97020B   24357.79078463  .00000717  00000+0  24186-3 0  9996
2 24793  86.3960 250.7850 0002034  75.2338 284.9084 14.35672782446580
IRIDIUM 5               
1 24795U 97020D   24358.05097172  .00006688  00000+0  58251-3 0  9999
2 24795  86.3920 164.7514 0116128  50.1297 311.0073 14.91584801459215
IRIDIUM 4               
1 24796U 97020E   24357.74628916  .00000621  00000+0  20465-3 0  9998
2 24796  86.3957 247.7952 0002205  80.6743 279.4704 14.36585748447134
IRIDIUM 914             
1 24836U 97030A   24358.16945499  .00000989  00000+0  30447-3 0  9997
2 24836  86.3933 256.7531 0003872  81.9438 278.2201 14.40548773443881
IRIDIUM 16              
1 24841U 97030F   24358.14487003  .00001037  00000+0  33400-3 0  9990
2 24841  86.4028 279.2418 0000804   5.1350 354.9857 14.38411448441950
IRIDIUM 911             
1 24842U 97030G   24357.83309922  .00001325  00000+0  35713-3 0  9998
2 24842  86.4453 278.3232 0013378 334.9181  25.1371 14.47220740449557
IRIDIUM 17              
1 24870U 97034B   24357.88415842  .00001148  00000+0  37699-3 0  9995
2 24870  86.3954 308.9176 0001265 129.2751 230.8559 14.37513725438255
IRIDIUM 920             
1 24871U 97034C   24358.17156778  .00001181  00000+0  35985-3 0  9992
2 24871  86.3968 288.4189 0009898 311.3941  48.6407 14.41222703441486
